STARLINK-36749          
1 67734U 26026P   26057.58335648  .00104847  00000+0  54213-3 0  9996
2 67734  97.2824 111.6968 0001828  95.6242 200.0723 15.80791949  3527
STARLINK-36691          
1 67735U 26026Q   26057.58335648  .00168443  00000+0  86492-3 0  9993
2 67735  97.2788 111.7040 0001697  97.9409 217.2029 15.80773388  3664
STARLINK-36317          
1 67736U 26026R   26057.58335648  .00148042  00000+0  76200-3 0  9993
2 67736  97.2788 111.6995 0001416 100.4782 205.2061 15.80774912  3528
STARLINK-36330          
1 67737U 26026S   26057.58335648  .00266499  00000+0  13556-2 0  9995
2 67737  97.2783 111.7062 0001249  89.8601 231.5463 15.80724278  3522
STARLINK-36327          
1 67738U 26026T   26057.58335648  .00240240  00000+0  12250-2 0  9992
2 67738  97.2782 111.7098 0001296  95.8579 233.5153 15.80738490  3523
STARLINK-36329          
1 67739U 26026U   26057.58335648  .00044604  00000+0  23256-3 0  9998
2 67739  97.2732 111.7271 0001339  98.5810 278.9228 15.80802323  3521
STARLINK-36737          
1 67740U 26026V   26057.58335648  .00266933  00000+0  13572-2 0  9990
2 67740  97.2776 111.7123 0001511  88.1088 250.0175 15.80733264  3520
STARLINK-36740          
1 67741U 26026W   26057.58335648  .00214444  00000+0  10961-2 0  9990
2 67741  97.2741 111.7242 0001183  94.8074 272.3014 15.80754605  3520
STARLINK-36693          
1 67742U 26026X   26057.58335648 -.00107759  00000+0 -56665-3 0  9995
2 67742  97.2774 111.7154 0000986  99.4336 245.3214 15.80899659  3667
STARLINK-36717          
1 67743U 26026Y   26057.58335648  .00199684  00000+0  10222-2 0  9990
2 67743  97.2767 111.7210 0001402  90.5566 269.9146 15.80759229  3668
STARLINK-36692          
1 67744U 26026Z   26057.58335648  .00074807  00000+0  38814-3 0  9998
2 67744  97.2778 111.7185 0001225 106.9483 246.1859 15.80804837  3524
2026-027A               
1 67746U 26027A   26057.56021625  .00010004  00000+0  50220-3 0  9990
2 67746  97.4883 186.6938 0009504 234.6761 125.3585 15.17460850  2175
