CCSDS_OMM_VERS = 2.0
CREATION_DATE  = 
ORIGINATOR     = 

OBJECT_NAME    = STARLINK-36749
OBJECT_ID      = 2026-026P
CENTER_NAME    = EARTH
REF_FRAME      = TEME
TIME_SYSTEM    = UTC
MEAN_ELEMENT_THEORY = SGP/SGP4

EPOCH          = 2026-02-26T14:00:01.999872
MEAN_MOTION    = 15.80791949
ECCENTRICITY   = .00018287
INCLINATION    = 97.2824
RA_OF_ASC_NODE = 111.6968
ARG_OF_PERICENTER = 95.6242
MEAN_ANOMALY   = 200.0723

EPHEMERIS_TYPE = 0
CLASSIFICATION_TYPE = U
NORAD_CAT_ID   = 67734
ELEMENT_SET_NO = 999
REV_AT_EPOCH   = 352
BSTAR          = .54213224E-3
MEAN_MOTION_DOT = .104847E-2
MEAN_MOTION_DDOT = 0

CCSDS_OMM_VERS = 2.0
CREATION_DATE  = 
ORIGINATOR     = 

OBJECT_NAME    = STARLINK-36691
OBJECT_ID      = 2026-026Q
CENTER_NAME    = EARTH
REF_FRAME      = TEME
TIME_SYSTEM    = UTC
MEAN_ELEMENT_THEORY = SGP/SGP4

EPOCH          = 2026-02-26T14:00:01.999872
MEAN_MOTION    = 15.80773388
ECCENTRICITY   = .00016974
INCLINATION    = 97.2788
RA_OF_ASC_NODE = 111.7040
ARG_OF_PERICENTER = 97.9409
MEAN_ANOMALY   = 217.2029

EPHEMERIS_TYPE = 0
CLASSIFICATION_TYPE = U
NORAD_CAT_ID   = 67735
ELEMENT_SET_NO = 999
REV_AT_EPOCH   = 366
BSTAR          = .86492028E-3
MEAN_MOTION_DOT = .168443E-2
MEAN_MOTION_DDOT = 0

CCSDS_OMM_VERS = 2.0
CREATION_DATE  = 
ORIGINATOR     = 

OBJECT_NAME    = STARLINK-36317
OBJECT_ID      = 2026-026R
CENTER_NAME    = EARTH
REF_FRAME      = TEME
TIME_SYSTEM    = UTC
MEAN_ELEMENT_THEORY = SGP/SGP4

EPOCH          = 2026-02-26T14:00:01.999872
MEAN_MOTION    = 15.80774912
ECCENTRICITY   = .0001416
INCLINATION    = 97.2788
RA_OF_ASC_NODE = 111.6995
ARG_OF_PERICENTER = 100.4782
MEAN_ANOMALY   = 205.2061

EPHEMERIS_TYPE = 0
CLASSIFICATION_TYPE = U
NORAD_CAT_ID   = 67736
ELEMENT_SET_NO = 999
REV_AT_EPOCH   = 352
BSTAR          = .76200004E-3
MEAN_MOTION_DOT = .148042E-2
MEAN_MOTION_DDOT = 0

CCSDS_OMM_VERS = 2.0
CREATION_DATE  = 
ORIGINATOR     = 

OBJECT_NAME    = STARLINK-36330
OBJECT_ID      = 2026-026S
CENTER_NAME    = EARTH
REF_FRAME      = TEME
TIME_SYSTEM    = UTC
MEAN_ELEMENT_THEORY = SGP/SGP4

EPOCH          = 2026-02-26T14:00:01.999872
MEAN_MOTION    = 15.80724278
ECCENTRICITY   = .00012494
INCLINATION    = 97.2783
RA_OF_ASC_NODE = 111.7062
ARG_OF_PERICENTER = 89.8601
MEAN_ANOMALY   = 231.5463

EPHEMERIS_TYPE = 0
CLASSIFICATION_TYPE = U
NORAD_CAT_ID   = 67737
ELEMENT_SET_NO = 999
REV_AT_EPOCH   = 352
BSTAR          = .13556218E-2
MEAN_MOTION_DOT = .266499E-2
MEAN_MOTION_DDOT = 0

CCSDS_OMM_VERS = 2.0
CREATION_DATE  = 
ORIGINATOR     = 

OBJECT_NAME    = STARLINK-36327
OBJECT_ID      = 2026-026T
CENTER_NAME    = EARTH
REF_FRAME      = TEME
TIME_SYSTEM    = UTC
MEAN_ELEMENT_THEORY = SGP/SGP4

EPOCH          = 2026-02-26T14:00:01.999872
MEAN_MOTION    = 15.80738490
ECCENTRICITY   = .00012969
INCLINATION    = 97.2782
RA_OF_ASC_NODE = 111.7098
ARG_OF_PERICENTER = 95.8579
MEAN_ANOMALY   = 233.5153

EPHEMERIS_TYPE = 0
CLASSIFICATION_TYPE = U
NORAD_CAT_ID   = 67738
ELEMENT_SET_NO = 999
REV_AT_EPOCH   = 352
BSTAR          = .12250497E-2
MEAN_MOTION_DOT = .24024E-2
MEAN_MOTION_DDOT = 0

CCSDS_OMM_VERS = 2.0
CREATION_DATE  = 
ORIGINATOR     = 

OBJECT_NAME    = STARLINK-36329
OBJECT_ID      = 2026-026U
CENTER_NAME    = EARTH
REF_FRAME      = TEME
TIME_SYSTEM    = UTC
MEAN_ELEMENT_THEORY = SGP/SGP4

EPOCH          = 2026-02-26T14:00:01.999872
MEAN_MOTION    = 15.80802323
ECCENTRICITY   = .00013391
INCLINATION    = 97.2732
RA_OF_ASC_NODE = 111.7271
ARG_OF_PERICENTER = 98.5810
MEAN_ANOMALY   = 278.9228

EPHEMERIS_TYPE = 0
CLASSIFICATION_TYPE = U
NORAD_CAT_ID   = 67739
ELEMENT_SET_NO = 999
REV_AT_EPOCH   = 352
BSTAR          = .23255941E-3
MEAN_MOTION_DOT = .44604E-3
MEAN_MOTION_DDOT = 0

CCSDS_OMM_VERS = 2.0
CREATION_DATE  = 
ORIGINATOR     = 

OBJECT_NAME    = STARLINK-36737
OBJECT_ID      = 2026-026V
CENTER_NAME    = EARTH
REF_FRAME      = TEME
TIME_SYSTEM    = UTC
MEAN_ELEMENT_THEORY = SGP/SGP4

EPOCH          = 2026-02-26T14:00:01.999872
MEAN_MOTION    = 15.80733264
ECCENTRICITY   = .0001511
INCLINATION    = 97.2776
RA_OF_ASC_NODE = 111.7123
ARG_OF_PERICENTER = 88.1088
MEAN_ANOMALY   = 250.0175

EPHEMERIS_TYPE = 0
CLASSIFICATION_TYPE = U
NORAD_CAT_ID   = 67740
ELEMENT_SET_NO = 999
REV_AT_EPOCH   = 352
BSTAR          = .13572077E-2
MEAN_MOTION_DOT = .266933E-2
MEAN_MOTION_DDOT = 0

CCSDS_OMM_VERS = 2.0
CREATION_DATE  = 
ORIGINATOR     = 

OBJECT_NAME    = STARLINK-36740
OBJECT_ID      = 2026-026W
CENTER_NAME    = EARTH
REF_FRAME      = TEME
TIME_SYSTEM    = UTC
MEAN_ELEMENT_THEORY = SGP/SGP4

EPOCH          = 2026-02-26T14:00:01.999872
MEAN_MOTION    = 15.80754605
ECCENTRICITY   = .00011839
INCLINATION    = 97.2741
RA_OF_ASC_NODE = 111.7242
ARG_OF_PERICENTER = 94.8074
MEAN_ANOMALY   = 272.3014

EPHEMERIS_TYPE = 0
CLASSIFICATION_TYPE = U
NORAD_CAT_ID   = 67741
ELEMENT_SET_NO = 999
REV_AT_EPOCH   = 352
BSTAR          = .10960551E-2
MEAN_MOTION_DOT = .214444E-2
MEAN_MOTION_DDOT = 0

CCSDS_OMM_VERS = 2.0
CREATION_DATE  = 
ORIGINATOR     = 

OBJECT_NAME    = STARLINK-36693
OBJECT_ID      = 2026-026X
CENTER_NAME    = EARTH
REF_FRAME      = TEME
TIME_SYSTEM    = UTC
MEAN_ELEMENT_THEORY = SGP/SGP4

EPOCH          = 2026-02-26T14:00:01.999872
MEAN_MOTION    = 15.80899659
ECCENTRICITY   = .00009862
INCLINATION    = 97.2774
RA_OF_ASC_NODE = 111.7154
ARG_OF_PERICENTER = 99.4336
MEAN_ANOMALY   = 245.3214

EPHEMERIS_TYPE = 0
CLASSIFICATION_TYPE = U
NORAD_CAT_ID   = 67742
ELEMENT_SET_NO = 999
REV_AT_EPOCH   = 366
BSTAR          = -.5666461E-3
MEAN_MOTION_DOT = -.107759E-2
MEAN_MOTION_DDOT = 0

CCSDS_OMM_VERS = 2.0
CREATION_DATE  = 
ORIGINATOR     = 

OBJECT_NAME    = STARLINK-36717
OBJECT_ID      = 2026-026Y
CENTER_NAME    = EARTH
REF_FRAME      = TEME
TIME_SYSTEM    = UTC
MEAN_ELEMENT_THEORY = SGP/SGP4

EPOCH          = 2026-02-26T14:00:01.999872
MEAN_MOTION    = 15.80759229
ECCENTRICITY   = .00014025
INCLINATION    = 97.2767
RA_OF_ASC_NODE = 111.7210
ARG_OF_PERICENTER = 90.5566
MEAN_ANOMALY   = 269.9146

EPHEMERIS_TYPE = 0
CLASSIFICATION_TYPE = U
NORAD_CAT_ID   = 67743
ELEMENT_SET_NO = 999
REV_AT_EPOCH   = 366
BSTAR          = .10221858E-2
MEAN_MOTION_DOT = .199684E-2
MEAN_MOTION_DDOT = 0

CCSDS_OMM_VERS = 2.0
CREATION_DATE  = 
ORIGINATOR     = 

OBJECT_NAME    = STARLINK-36692
OBJECT_ID      = 2026-026Z
CENTER_NAME    = EARTH
REF_FRAME      = TEME
TIME_SYSTEM    = UTC
MEAN_ELEMENT_THEORY = SGP/SGP4

EPOCH          = 2026-02-26T14:00:01.999872
MEAN_MOTION    = 15.80804837
ECCENTRICITY   = .0001225
INCLINATION    = 97.2778
RA_OF_ASC_NODE = 111.7185
ARG_OF_PERICENTER = 106.9483
MEAN_ANOMALY   = 246.1859

EPHEMERIS_TYPE = 0
CLASSIFICATION_TYPE = U
NORAD_CAT_ID   = 67744
ELEMENT_SET_NO = 999
REV_AT_EPOCH   = 352
BSTAR          = .38814212E-3
MEAN_MOTION_DOT = .74807E-3
MEAN_MOTION_DDOT = 0

CCSDS_OMM_VERS = 2.0
CREATION_DATE  = 
ORIGINATOR     = 

OBJECT_NAME    = 2026-027A
OBJECT_ID      = 2026-027A
CENTER_NAME    = EARTH
REF_FRAME      = TEME
TIME_SYSTEM    = UTC
MEAN_ELEMENT_THEORY = SGP/SGP4

EPOCH          = 2026-02-26T13:26:42.684000
MEAN_MOTION    = 15.17460850
ECCENTRICITY   = .00095049
INCLINATION    = 97.4883
RA_OF_ASC_NODE = 186.6938
ARG_OF_PERICENTER = 234.6761
MEAN_ANOMALY   = 125.3585

EPHEMERIS_TYPE = 0
CLASSIFICATION_TYPE = U
NORAD_CAT_ID   = 67746
ELEMENT_SET_NO = 999
REV_AT_EPOCH   = 217
BSTAR          = .50220247E-3
MEAN_MOTION_DOT = .10004E-3
MEAN_MOTION_DDOT = 0

